start=new Date('2023-04-12T00:00:00.000Z').valueOf();
sats=[{"APOAPSIS":"574.151","OBJECT_TYPE":"PAYLOAD","MEAN_MOTION_DDOT":"0.0000000000000","SEMIMAJOR_AXIS":"6950.194","MEAN_MOTION_DOT":"-0.00000001","BSTAR":"0.00000774410000","CENTER_NAME":"EARTH","GP_ID":"229948833","ARG_OF_PERICENTER":"271.0653","OBJECT_ID":"2023-014AV","REV_AT_EPOCH":"1184","MEAN_ELEMENT_THEORY":"SGP4","EPHEMERIS_TYPE":"0","NORAD_CAT_ID":"55434","OBJECT_NAME":"STARLINK-5621","REF_FRAME":"TEME","PERIAPSIS":"569.967","TLE_LINE2":"2 55434  69.9986 264.6363 0003010 271.0653  89.0161 14.98329494 11840","COUNTRY_CODE":"US","RCS_SIZE":"LARGE","INCLINATION":"69.9986","ELEMENT_SET_NO":"999","RA_OF_ASC_NODE":"264.6363","MEAN_ANOMALY":"89.0161","TIME_SYSTEM":"UTC","EPOCH":"2023-04-11T16:58:35.733792","MEAN_MOTION":"14.98329494","FILE":"3885919","TLE_LINE1":"1 55434U 23014AV  23101.70735803 -.00000001  00000-0  77441-5 0  9991","CLASSIFICATION_TYPE":"U","SITE":"AFWTR","DECAY_DATE":null,"LAUNCH_DATE":"2023-01-31","ECCENTRICITY":"0.00030100","PERIOD":"96.107"},{"TIME_SYSTEM":"UTC","MEAN_ANOMALY":"84.7832","RA_OF_ASC_NODE":"265.1122","EPOCH":"2023-04-11T11:58:10.443072","RCS_SIZE":"LARGE","INCLINATION":"69.9974","ELEMENT_SET_NO":"999","PERIAPSIS":"570.305","TLE_LINE2":"2 55435  69.9974 265.1122 0002521 275.3039  84.7832 14.98330225 11816","COUNTRY_CODE":"US","OBJECT_NAME":"STARLINK-5626","REF_FRAME":"TEME","PERIOD":"96.107","DECAY_DATE":null,"LAUNCH_DATE":"2023-01-31","ECCENTRICITY":"0.00025210","SITE":"AFWTR","FILE":"3885783","MEAN_MOTION":"14.98330225","TLE_LINE1":"1 55435U 23014AW  23101.49873198 -.00000626  00000-0 -44669-4 0  9997","CLASSIFICATION_TYPE":"U","MEAN_MOTION_DOT":"-0.00000626","SEMIMAJOR_AXIS":"6950.192","MEAN_MOTION_DDOT":"0.0000000000000","APOAPSIS":"573.809","OBJECT_TYPE":"PAYLOAD","EPHEMERIS_TYPE":"0","MEAN_ELEMENT_THEORY":"SGP4","NORAD_CAT_ID":"55435","REV_AT_EPOCH":"1181","GP_ID":"229917989","ARG_OF_PERICENTER":"275.3039","OBJECT_ID":"2023-014AW","BSTAR":"-0.00004466900000","CENTER_NAME":"EARTH"},{"DECAY_DATE":null,"LAUNCH_DATE":"2023-01-31","ECCENTRICITY":"0.00032420","PERIOD":"96.107","CLASSIFICATION_TYPE":"U","MEAN_MOTION":"14.98331344","FILE":"3885919","TLE_LINE1":"1 55436U 23014AX  23101.71153147 -.00000048  00000-0  38123-5 0  9994","SITE":"AFWTR","INCLINATION":"69.9986","ELEMENT_SET_NO":"999","RCS_SIZE":"LARGE","MEAN_ANOMALY":"91.1933","TIME_SYSTEM":"UTC","RA_OF_ASC_NODE":"264.6514","EPOCH":"2023-04-11T17:04:36.319008","OBJECT_NAME":"STARLINK-5640","REF_FRAME":"TEME","COUNTRY_CODE":"US","TLE_LINE2":"2 55436  69.9986 264.6514 0003242 268.8854  91.1933 14.98331344 11842","PERIAPSIS":"569.800","REV_AT_EPOCH":"1184","NORAD_CAT_ID":"55436","EPHEMERIS_TYPE":"0","MEAN_ELEMENT_THEORY":"SGP4","CENTER_NAME":"EARTH","BSTAR":"0.00000381230000","OBJECT_ID":"2023-014AX","ARG_OF_PERICENTER":"268.8854","GP_ID":"229947848","SEMIMAJOR_AXIS":"6950.189","MEAN_MOTION_DOT":"-0.00000048","APOAPSIS":"574.307","OBJECT_TYPE":"PAYLOAD","MEAN_MOTION_DDOT":"0.0000000000000"},{"GP_ID":"229919490","ARG_OF_PERICENTER":"269.7406","OBJECT_ID":"2023-014AY","BSTAR":"0.00019966000000","CENTER_NAME":"EARTH","EPHEMERIS_TYPE":"0","MEAN_ELEMENT_THEORY":"SGP4","NORAD_CAT_ID":"55437","REV_AT_EPOCH":"1181","MEAN_MOTION_DDOT":"0.0000000000000","APOAPSIS":"574.268","OBJECT_TYPE":"PAYLOAD","MEAN_MOTION_DOT":"0.00002291","SEMIMAJOR_AXIS":"6950.129","SITE":"AFWTR","MEAN_MOTION":"14.98350524","FILE":"3885783","TLE_LINE1":"1 55437U 23014AY  23101.50287928  .00002291  00000-0  19966-3 0  9990","CLASSIFICATION_TYPE":"U","PERIOD":"96.106","LAUNCH_DATE":"2023-01-31","DECAY_DATE":null,"ECCENTRICITY":"0.00032710","PERIAPSIS":"569.721","TLE_LINE2":"2 55437  69.9976 265.1272 0003271 269.7406  90.3378 14.98350524 11816","COUNTRY_CODE":"US","OBJECT_NAME":"STARLINK-5080","REF_FRAME":"TEME","TIME_SYSTEM":"UTC","MEAN_ANOMALY":"90.3378","RA_OF_ASC_NODE":"265.1272","EPOCH":"2023-04-11T12:04:08.769792","RCS_SIZE":"LARGE","INCLINATION":"69.9976","ELEMENT_SET_NO":"999"},{"RCS_SIZE":"LARGE","ELEMENT_SET_NO":"999","INCLINATION":"69.9987","EPOCH":"2023-04-11T13:51:21.999744","TIME_SYSTEM":"UTC","MEAN_ANOMALY":"92.9611","RA_OF_ASC_NODE":"253.1920","REF_FRAME":"TEME","OBJECT_NAME":"STARLINK-5074","PERIAPSIS":"356.973","COUNTRY_CODE":"US","TLE_LINE2":"2 55438  69.9987 253.1920 0003196 267.1219  92.9611 15.69920743 12113","ECCENTRICITY":"0.00031960","DECAY_DATE":null,"LAUNCH_DATE":"2023-01-31","PERIOD":"91.724","TLE_LINE1":"1 55438U 23014AZ  23101.57733796 -.00000584  00000-0 -30910-5 0  9996","MEAN_MOTION":"15.69920743","FILE":"3885783","CLASSIFICATION_TYPE":"U","SITE":"AFWTR","SEMIMAJOR_AXIS":"6737.261","MEAN_MOTION_DOT":"-0.00000584","OBJECT_TYPE":"PAYLOAD","APOAPSIS":"361.279","MEAN_MOTION_DDOT":"0.0000000000000","REV_AT_EPOCH":"1211","MEAN_ELEMENT_THEORY":"SGP4","EPHEMERIS_TYPE":"0","NORAD_CAT_ID":"55438","BSTAR":"-0.00000309100000","CENTER_NAME":"EARTH","GP_ID":"229919740","ARG_OF_PERICENTER":"267.1219","OBJECT_ID":"2023-014AZ"},{"RCS_SIZE":"LARGE","INCLINATION":"69.9988","ELEMENT_SET_NO":"999","MEAN_ANOMALY":"87.8786","RA_OF_ASC_NODE":"264.3305","TIME_SYSTEM":"UTC","EPOCH":"2023-04-11T20:22:53.425344","OBJECT_NAME":"STARLINK-5634","REF_FRAME":"TEME","PERIAPSIS":"569.889","TLE_LINE2":"2 55439  69.9988 264.3305 0003133 272.2014  87.8786 14.98327314 11860","COUNTRY_CODE":"US","LAUNCH_DATE":"2023-01-31","DECAY_DATE":null,"ECCENTRICITY":"0.00031330","PERIOD":"96.107","FILE":"3885919","MEAN_MOTION":"14.98327314","TLE_LINE1":"1 55439U 23014BA  23101.84922946 -.00000215  00000-0 -10237-4 0  9994","CLASSIFICATION_TYPE":"U","SITE":"AFWTR","SEMIMAJOR_AXIS":"6950.201","MEAN_MOTION_DOT":"-0.00000215","APOAPSIS":"574.244","OBJECT_TYPE":"PAYLOAD","MEAN_MOTION_DDOT":"0.0000000000000","REV_AT_EPOCH":"1186","EPHEMERIS_TYPE":"0","MEAN_ELEMENT_THEORY":"SGP4","NORAD_CAT_ID":"55439","BSTAR":"-0.00001023700000","CENTER_NAME":"EARTH","GP_ID":"229948098","OBJECT_ID":"2023-014BA","ARG_OF_PERICENTER":"272.2014"},{"PERIOD":"94.932","ECCENTRICITY":"0.00012800","LAUNCH_DATE":"2023-02-02","DECAY_DATE":null,"SITE":"AFETR","CLASSIFICATION_TYPE":"U","TLE_LINE1":"1 55449U 23015A   23101.91667824 -.00918175  00000-0 -49451-1 0  9995","MEAN_MOTION":"15.16872590","FILE":"3885919","EPOCH":"2023-04-11T22:00:00.999936","RA_OF_ASC_NODE":"341.8531","MEAN_ANOMALY":"71.3114","TIME_SYSTEM":"UTC","ELEMENT_SET_NO":"999","INCLINATION":"43.0006","RCS_SIZE":"LARGE","TLE_LINE2":"2 55449  43.0006 341.8531 0001280 266.7179  71.3114 15.16872590  1301","COUNTRY_CODE":"US","PERIAPSIS":"514.419","REF_FRAME":"TEME","OBJECT_NAME":"STARLINK-5699","NORAD_CAT_ID":"55449","EPHEMERIS_TYPE":"0","MEAN_ELEMENT_THEORY":"SGP4","REV_AT_EPOCH":"130","OBJECT_ID":"2023-015A","ARG_OF_PERICENTER":"266.7179","GP_ID":"229947849","CENTER_NAME":"EARTH","BSTAR":"-0.04945100000000","MEAN_MOTION_DOT":"-0.00918175","SEMIMAJOR_AXIS":"6893.436","MEAN_MOTION_DDOT":"0.0000000000000","OBJECT_TYPE":"PAYLOAD","APOAPSIS":"516.184"},{"REV_AT_EPOCH":"130","NORAD_CAT_ID":"55450","EPHEMERIS_TYPE":"0","MEAN_ELEMENT_THEORY":"SGP4","CENTER_NAME":"EARTH","BSTAR":"-0.04952100000000","ARG_OF_PERICENTER":"267.9906","OBJECT_ID":"2023-015B","GP_ID":"229949100","SEMIMAJOR_AXIS":"6893.878","MEAN_MOTION_DOT":"-0.00915798","OBJECT_TYPE":"PAYLOAD","APOAPSIS":"516.602","MEAN_MOTION_DDOT":"0.0000000000000","ECCENTRICITY":"0.00012460","LAUNCH_DATE":"2023-02-02","DECAY_DATE":null,"PERIOD":"94.941","CLASSIFICATION_TYPE":"U","TLE_LINE1":"1 55450U 23015B   23101.91667824 -.00915798  00000-0 -49521-1 0  9993","FILE":"3885919","MEAN_MOTION":"15.16726698","SITE":"AFETR","ELEMENT_SET_NO":"999","INCLINATION":"43.0010","RCS_SIZE":"LARGE","EPOCH":"2023-04-11T22:00:00.999936","MEAN_ANOMALY":"60.2022","RA_OF_ASC_NODE":"341.8776","TIME_SYSTEM":"UTC","REF_FRAME":"TEME","OBJECT_NAME":"STARLINK-5686","TLE_LINE2":"2 55450  43.0010 341.8776 0001246 267.9906  60.2022 15.16726698  1304","COUNTRY_CODE":"US","PERIAPSIS":"514.884"},{"PERIOD":"94.921","DECAY_DATE":null,"LAUNCH_DATE":"2023-02-02","ECCENTRICITY":"0.00012700","SITE":"AFETR","FILE":"3885837","MEAN_MOTION":"15.17055358","TLE_LINE1":"1 55451U 23015C   23101.91667824 -.00917393  00000-0 -49146-1 0  9990","CLASSIFICATION_TYPE":"U","MEAN_ANOMALY":"83.0850","TIME_SYSTEM":"UTC","RA_OF_ASC_NODE":"341.8239","EPOCH":"2023-04-11T22:00:00.999936","RCS_SIZE":"LARGE","INCLINATION":"43.0004","ELEMENT_SET_NO":"999","PERIAPSIS":"513.872","COUNTRY_CODE":"US","TLE_LINE2":"2 55451  43.0004 341.8239 0001270 267.0606  83.0850 15.17055358 10870","OBJECT_NAME":"STARLINK-5656","REF_FRAME":"TEME","EPHEMERIS_TYPE":"0","MEAN_ELEMENT_THEORY":"SGP4","NORAD_CAT_ID":"55451","REV_AT_EPOCH":"1087","GP_ID":"229920788","ARG_OF_PERICENTER":"267.0606","OBJECT_ID":"2023-015C","BSTAR":"-0.04914600000000","CENTER_NAME":"EARTH","MEAN_MOTION_DOT":"-0.00917393","SEMIMAJOR_AXIS":"6892.883","MEAN_MOTION_DDOT":"0.0000000000000","APOAPSIS":"515.623","OBJECT_TYPE":"PAYLOAD"},{"FILE":"3885837","MEAN_MOTION":"15.17555125","TLE_LINE1":"1 55452U 23015D   23101.91667824 -.00917714  00000-0 -48460-1 0  9996","CLASSIFICATION_TYPE":"U","SITE":"AFETR","DECAY_DATE":null,"LAUNCH_DATE":"2023-02-02","ECCENTRICITY":"0.00012400","PERIOD":"94.889","OBJECT_NAME":"STARLINK-5683","REF_FRAME":"TEME","PERIAPSIS":"512.380","TLE_LINE2":"2 55452  42.9999 341.7476 0001240 269.8608 112.0494 15.17555125 10877","COUNTRY_CODE":"US","RCS_SIZE":"LARGE","INCLINATION":"42.9999","ELEMENT_SET_NO":"999","RA_OF_ASC_NODE":"341.7476","TIME_SYSTEM":"UTC","MEAN_ANOMALY":"112.0494","EPOCH":"2023-04-11T22:00:00.999936","BSTAR":"-0.04846000000000","CENTER_NAME":"EARTH","GP_ID":"229920792","ARG_OF_PERICENTER":"269.8608","OBJECT_ID":"2023-015D","REV_AT_EPOCH":"1087","EPHEMERIS_TYPE":"0","MEAN_ELEMENT_THEORY":"SGP4","NORAD_CAT_ID":"55452","APOAPSIS":"514.089","OBJECT_TYPE":"PAYLOAD","MEAN_MOTION_DDOT":"0.0000000000000","SEMIMAJOR_AXIS":"6891.369","MEAN_MOTION_DOT":"-0.00917714"}];
